[{"OBJECT_NAME":"ION SCV-014","OBJECT_ID":"2025-009X","EPOCH":"2026-03-09T17:13:35.291712","MEAN_MOTION":15.0488465,"ECCENTRICITY":0.00064503,"INCLINATION":97.4923,"RA_OF_ASC_NODE":144.8636,"ARG_OF_PERICENTER":112.6479,"MEAN_ANOMALY":247.543,"EPHEMERIS_TYPE":0,"CLASSIFICATION_TYPE":"U","NORAD_CAT_ID":62630,"ELEMENT_SET_NO":999,"REV_AT_EPOCH":6302,"BSTAR":0.0001322874,"MEAN_MOTION_DOT":1.812e-5,"MEAN_MOTION_DDOT":0},{"OBJECT_NAME":"STARLINK-35077","OBJECT_ID":"2025-200K","EPOCH":"2026-03-09T17:18:38.202336","MEAN_MOTION":15.05645307,"ECCENTRICITY":0.00010011,"INCLINATION":97.602,"RA_OF_ASC_NODE":139.7977,"ARG_OF_PERICENTER":115.6685,"MEAN_ANOMALY":244.4645,"EPHEMERIS_TYPE":0,"CLASSIFICATION_TYPE":"U","NORAD_CAT_ID":65529,"ELEMENT_SET_NO":999,"REV_AT_EPOCH":2913,"BSTAR":0.00026033492,"MEAN_MOTION_DOT":3.697e-5,"MEAN_MOTION_DDOT":0}]
